IRIDIUM 126             
1 42809U 17039G   24021.94906086  .00000526  00000+0  18082-3 0  9998
2 42809  86.3985   0.2415 0002381  81.8637 278.2829 14.34219101344211
IRIDIUM 124             
1 42810U 17039H   24021.18524944  .00000869  00000+0  25238-3 0  9996
2 42810  86.4501 297.3183 0001890  87.4997 272.6420 14.43295703348473
IRIDIUM 128             
1 42811U 17039J   24021.93979869  .00000223  00000+0  72553-4 0  9997
2 42811  86.3953  31.7573 0002122  86.2068 273.9370 14.34216906344249
IRIDIUM 121             
1 42812U 17039K   24021.89832103  .00000189  00000+0  60504-4 0  9996
2 42812  86.3985   0.2847 0002237  87.0348 273.1103 14.34218195344087
IRIDIUM 133             
1 42955U 17061A   24021.55290444  .00000292  00000+0  97350-4 0  9992
2 42955  86.3955  32.0153 0002325  88.7426 271.4036 14.34218448328986
IRIDIUM 100             
1 42956U 17061B   24021.96517516  .00000268  00000+0  88576-4 0  9993
2 42956  86.3953  31.7820 0002156  88.9517 271.1925 14.34216541329041
IRIDIUM 122             
1 42957U 17061C   24021.93345205  .00000248  00000+0  81570-4 0  9990
2 42957  86.3953  31.7934 0002119  85.3923 274.7514 14.34217901329043
IRIDIUM 129             
1 42958U 17061D   24021.95882970  .00000262  00000+0  86620-4 0  9995
2 42958  86.3954  31.8405 0002213  85.9298 274.2150 14.34218849329060
